[
  {
    "COMMENT": "GENERATED VIA SPACETRACK.ORG API",
    "ORIGINATOR": "18 SPCS",
    "NORAD_CAT_ID": "41240",
    "OBJECT_NAME": "JASON 3",
    "OBJECT_TYPE": "PAYLOAD",
    "CLASSIFICATION_TYPE": "U",
    "INTLDES": "16002A",
    "EPOCH": "2023-05-24 16:01:57",
    "EPOCH_MICROSECONDS": "291744",
    "MEAN_MOTION": "12.80931714",
    "ECCENTRICITY": "0.0007649",
    "INCLINATION": "66.0415",
    "RA_OF_ASC_NODE": "300.3644",
    "ARG_OF_PERICENTER": "271.5471",
    "MEAN_ANOMALY": "88.4668",
    "EPHEMERIS_TYPE": "0",
    "ELEMENT_SET_NO": "999",
    "REV_AT_EPOCH": "34361",
    "BSTAR": "0.00011235",
    "MEAN_MOTION_DOT": "-0.00000035",
    "MEAN_MOTION_DDOT": "0",
    "FILE": "3916549",
    "TLE_LINE0": "0 JASON 3",
    "TLE_LINE1": "1 41240U 16002A   23144.66802421 -.00000035  00000-0  11235-3 0  9997",
    "TLE_LINE2": "2 41240  66.0415 300.3644 0007649 271.5471  88.4668 12.80931714343611",
    "OBJECT_ID": "2016-002A",
    "OBJECT_NUMBER": "41240",
    "SEMIMAJOR_AXIS": "7715.863",
    "PERIOD": "112.418",
    "APOGEE": "1343.630",
    "PERIGEE": "1331.826",
    "DECAYED": "0"
  },
  {
    "COMMENT": "GENERATED VIA SPACETRACK.ORG API",
    "ORIGINATOR": "18 SPCS",
    "NORAD_CAT_ID": "41240",
    "OBJECT_NAME": "JASON 3",
    "OBJECT_TYPE": "PAYLOAD",
    "CLASSIFICATION_TYPE": "U",
    "INTLDES": "16002A",
    "EPOCH": "2023-05-25 22:00:49",
    "EPOCH_MICROSECONDS": "527360",
    "MEAN_MOTION": "12.80928388",
    "ECCENTRICITY": "0.0007652",
    "INCLINATION": "66.0416",
    "RA_OF_ASC_NODE": "297.7694",
    "ARG_OF_PERICENTER": "271.3781",
    "MEAN_ANOMALY": "88.6357",
    "EPHEMERIS_TYPE": "0",
    "ELEMENT_SET_NO": "999",
    "REV_AT_EPOCH": "34377",
    "BSTAR": "0.00010294",
    "MEAN_MOTION_DOT": "-0.00000037",
    "MEAN_MOTION_DDOT": "0",
    "FILE": "3917122",
    "TLE_LINE0": "0 JASON 3",
    "TLE_LINE1": "1 41240U 16002A   23145.91723990 -.00000037  00000-0  10294-3 0  9995",
    "TLE_LINE2": "2 41240  66.0416 297.7694 0007652 271.3781  88.6357 12.80928388343779",
    "OBJECT_ID": "2016-002A",
    "OBJECT_NUMBER": "41240",
    "SEMIMAJOR_AXIS": "7715.877",
    "PERIOD": "112.418",
    "APOGEE": "1343.646",
    "PERIGEE": "1331.837",
    "DECAYED": "0"
  },
  {
    "COMMENT": "GENERATED VIA SPACETRACK.ORG API",
    "ORIGINATOR": "18 SPCS",
    "NORAD_CAT_ID": "41240",
    "OBJECT_NAME": "JASON 3",
    "OBJECT_TYPE": "PAYLOAD",
    "CLASSIFICATION_TYPE": "U",
    "INTLDES": "16002A",
    "EPOCH": "2023-05-26 03:38:06",
    "EPOCH_MICROSECONDS": "839520",
    "MEAN_MOTION": "12.80928293",
    "ECCENTRICITY": "0.0007658",
    "INCLINATION": "66.0416",
    "RA_OF_ASC_NODE": "297.2829",
    "ARG_OF_PERICENTER": "271.3757",
    "MEAN_ANOMALY": "88.6381",
    "EPHEMERIS_TYPE": "0",
    "ELEMENT_SET_NO": "999",
    "REV_AT_EPOCH": "34394",
    "BSTAR": "0.00010195",
    "MEAN_MOTION_DOT": "-0.00000038",
    "MEAN_MOTION_DDOT": "0",
    "FILE": "3917278",
    "TLE_LINE0": "0 JASON 3",
    "TLE_LINE1": "1 41240U 16002A   23146.15146805 -.00000038  00000-0  10195-3 0  9997",
    "TLE_LINE2": "2 41240  66.0416 297.2829 0007658 271.3757  88.6381 12.80928293343944",
    "OBJECT_ID": "2016-002A",
    "OBJECT_NUMBER": "41240",
    "SEMIMAJOR_AXIS": "7715.877",
    "PERIOD": "112.418",
    "APOGEE": "1343.651",
    "PERIGEE": "1331.833",
    "DECAYED": "0"
  },
  {
    "COMMENT": "GENERATED VIA SPACETRACK.ORG API",
    "ORIGINATOR": "18 SPCS",
    "NORAD_CAT_ID": "41240",
    "OBJECT_NAME": "JASON 3",
    "OBJECT_TYPE": "PAYLOAD",
    "CLASSIFICATION_TYPE": "U",
    "INTLDES": "16002A",
    "EPOCH": "2023-05-26 13:00:15",
    "EPOCH_MICROSECONDS": "690528",
    "MEAN_MOTION": "12.80928307",
    "ECCENTRICITY": "0.0007657",
    "INCLINATION": "66.0416",
    "RA_OF_ASC_NODE": "296.4721",
    "ARG_OF_PERICENTER": "271.4402",
    "MEAN_ANOMALY": "88.5736",
    "EPHEMERIS_TYPE": "0",
    "ELEMENT_SET_NO": "999",
    "REV_AT_EPOCH": "34385",
    "BSTAR": "0.000091308",
    "MEAN_MOTION_DOT": "-0.0000004",
    "MEAN_MOTION_DDOT": "0",
    "FILE": "3917630",
    "TLE_LINE0": "0 JASON 3",
    "TLE_LINE1": "1 41240U 16002A   23146.54184827 -.00000040  00000-0  91308-4 0  9995",
    "TLE_LINE2": "2 41240  66.0416 296.4721 0007657 271.4402  88.5736 12.80928307343852",
    "OBJECT_ID": "2016-002A",
    "OBJECT_NUMBER": "41240",
    "SEMIMAJOR_AXIS": "7715.877",
    "PERIOD": "112.418",
    "APOGEE": "1343.650",
    "PERIGEE": "1331.834",
    "DECAYED": "0"
  },
  {
    "COMMENT": "GENERATED VIA SPACETRACK.ORG API",
    "ORIGINATOR": "18 SPCS",
    "NORAD_CAT_ID": "41240",
    "OBJECT_NAME": "JASON 3",
    "OBJECT_TYPE": "PAYLOAD",
    "CLASSIFICATION_TYPE": "U",
    "INTLDES": "16002A",
    "EPOCH": "2023-05-26 20:29:58",
    "EPOCH_MICROSECONDS": "768224",
    "MEAN_MOTION": "12.80928301",
    "ECCENTRICITY": "0.0007656",
    "INCLINATION": "66.0416",
    "RA_OF_ASC_NODE": "295.8234",
    "ARG_OF_PERICENTER": "271.4183",
    "MEAN_ANOMALY": "88.5955",
    "EPHEMERIS_TYPE": "0",
    "ELEMENT_SET_NO": "999",
    "REV_AT_EPOCH": "34389",
    "BSTAR": "0.000061294",
    "MEAN_MOTION_DOT": "-0.00000047",
    "MEAN_MOTION_DDOT": "0",
    "FILE": "3917850",
    "TLE_LINE0": "0 JASON 3",
    "TLE_LINE1": "1 41240U 16002A   23146.85415241 -.00000047  00000-0  61294-4 0  9994",
    "TLE_LINE2": "2 41240  66.0416 295.8234 0007656 271.4183  88.5955 12.80928301343890",
    "OBJECT_ID": "2016-002A",
    "OBJECT_NUMBER": "41240",
    "SEMIMAJOR_AXIS": "7715.877",
    "PERIOD": "112.418",
    "APOGEE": "1343.649",
    "PERIGEE": "1331.835",
    "DECAYED": "0"
  },
  {
    "COMMENT": "GENERATED VIA SPACETRACK.ORG API",
    "ORIGINATOR": "18 SPCS",
    "NORAD_CAT_ID": "41240",
    "OBJECT_NAME": "JASON 3",
    "OBJECT_TYPE": "PAYLOAD",
    "CLASSIFICATION_TYPE": "U",
    "INTLDES": "16002A",
    "EPOCH": "2023-05-27 03:59:41",
    "EPOCH_MICROSECONDS": "845920",
    "MEAN_MOTION": "12.80928299",
    "ECCENTRICITY": "0.0007662",
    "INCLINATION": "66.0416",
    "RA_OF_ASC_NODE": "295.1749",
    "ARG_OF_PERICENTER": "271.4121",
    "MEAN_ANOMALY": "88.6016",
    "EPHEMERIS_TYPE": "0",
    "ELEMENT_SET_NO": "999",
    "REV_AT_EPOCH": "34407",
    "BSTAR": "0.000045742",
    "MEAN_MOTION_DOT": "-0.0000005",
    "MEAN_MOTION_DDOT": "0",
    "FILE": "3918024",
    "TLE_LINE0": "0 JASON 3",
    "TLE_LINE1": "1 41240U 16002A   23147.16645655 -.00000050  00000-0  45742-4 0  9997",
    "TLE_LINE2": "2 41240  66.0416 295.1749 0007662 271.4121  88.6016 12.80928299344079",
    "OBJECT_ID": "2016-002A",
    "OBJECT_NUMBER": "41240",
    "SEMIMAJOR_AXIS": "7715.877",
    "PERIOD": "112.418",
    "APOGEE": "1343.654",
    "PERIGEE": "1331.830",
    "DECAYED": "0"
  },
  {
    "COMMENT": "GENERATED VIA SPACETRACK.ORG API",
    "ORIGINATOR": "18 SPCS",
    "NORAD_CAT_ID": "41240",
    "OBJECT_NAME": "JASON 3",
    "OBJECT_TYPE": "PAYLOAD",
    "CLASSIFICATION_TYPE": "U",
    "INTLDES": "16002A",
    "EPOCH": "2023-05-27 20:51:33",
    "EPOCH_MICROSECONDS": "769440",
    "MEAN_MOTION": "12.80928317",
    "ECCENTRICITY": "0.000767",
    "INCLINATION": "66.0416",
    "RA_OF_ASC_NODE": "293.7153",
    "ARG_OF_PERICENTER": "271.3678",
    "MEAN_ANOMALY": "88.6458",
    "EPHEMERIS_TYPE": "0",
    "ELEMENT_SET_NO": "999",
    "REV_AT_EPOCH": "34402",
    "BSTAR": "0.000041865",
    "MEAN_MOTION_DOT": "-0.00000051",
    "MEAN_MOTION_DDOT": "0",
    "FILE": "3918755",
    "TLE_LINE0": "0 JASON 3",
    "TLE_LINE1": "1 41240U 16002A   23147.86914085 -.00000051  00000-0  41865-4 0  9993",
    "TLE_LINE2": "2 41240  66.0416 293.7153 0007670 271.3678  88.6458 12.80928317344023",
    "OBJECT_ID": "2016-002A",
    "OBJECT_NUMBER": "41240",
    "SEMIMAJOR_AXIS": "7715.877",
    "PERIOD": "112.418",
    "APOGEE": "1343.660",
    "PERIGEE": "1331.824",
    "DECAYED": "0"
  },
  {
    "COMMENT": "GENERATED VIA SPACETRACK.ORG API",
    "ORIGINATOR": "18 SPCS",
    "NORAD_CAT_ID": "41240",
    "OBJECT_NAME": "JASON 3",
    "OBJECT_TYPE": "PAYLOAD",
    "CLASSIFICATION_TYPE": "U",
    "INTLDES": "16002A",
    "EPOCH": "2023-05-28 06:13:42",
    "EPOCH_MICROSECONDS": "611808",
    "MEAN_MOTION": "12.80928416",
    "ECCENTRICITY": "0.0007673",
    "INCLINATION": "66.0417",
    "RA_OF_ASC_NODE": "292.9045",
    "ARG_OF_PERICENTER": "271.3568",
    "MEAN_ANOMALY": "88.6568",
    "EPHEMERIS_TYPE": "0",
    "ELEMENT_SET_NO": "999",
    "REV_AT_EPOCH": "34407",
    "BSTAR": "0.00015594",
    "MEAN_MOTION_DOT": "-0.00000025",
    "MEAN_MOTION_DDOT": "0",
    "FILE": "3919252",
    "TLE_LINE0": "0 JASON 3",
    "TLE_LINE1": "1 41240U 16002A   23148.25952097 -.00000025  00000-0  15594-3 0  9992",
    "TLE_LINE2": "2 41240  66.0417 292.9045 0007673 271.3568  88.6568 12.80928416344073",
    "OBJECT_ID": "2016-002A",
    "OBJECT_NUMBER": "41240",
    "SEMIMAJOR_AXIS": "7715.877",
    "PERIOD": "112.418",
    "APOGEE": "1343.662",
    "PERIGEE": "1331.821",
    "DECAYED": "0"
  },
  {
    "COMMENT": "GENERATED VIA SPACETRACK.ORG API",
    "ORIGINATOR": "18 SPCS",
    "NORAD_CAT_ID": "41240",
    "OBJECT_NAME": "JASON 3",
    "OBJECT_TYPE": "PAYLOAD",
    "CLASSIFICATION_TYPE": "U",
    "INTLDES": "16002A",
    "EPOCH": "2023-05-28 09:58:34",
    "EPOCH_MICROSECONDS": "148928",
    "MEAN_MOTION": "12.80928421",
    "ECCENTRICITY": "0.0007673",
    "INCLINATION": "66.0417",
    "RA_OF_ASC_NODE": "292.5801",
    "ARG_OF_PERICENTER": "271.3308",
    "MEAN_ANOMALY": "88.6828",
    "EPHEMERIS_TYPE": "0",
    "ELEMENT_SET_NO": "999",
    "REV_AT_EPOCH": "34423",
    "BSTAR": "0.00013589",
    "MEAN_MOTION_DOT": "-0.0000003",
    "MEAN_MOTION_DDOT": "0",
    "FILE": "3919049",
    "TLE_LINE0": "0 JASON 3",
    "TLE_LINE1": "1 41240U 16002A   23148.41567302 -.00000030  00000-0  13589-3 0  9999",
    "TLE_LINE2": "2 41240  66.0417 292.5801 0007673 271.3308  88.6828 12.80928421344234",
    "OBJECT_ID": "2016-002A",
    "OBJECT_NUMBER": "41240",
    "SEMIMAJOR_AXIS": "7715.876",
    "PERIOD": "112.418",
    "APOGEE": "1343.662",
    "PERIGEE": "1331.821",
    "DECAYED": "0"
  }
]